[
    {
        "Altitude(m)": 554242.2072258068,
        "Argument of Periapsis(deg)": 0.0,
        "Eccentricity": 0.0,
        "Inclination(deg)": 53.0,
        "Latitude(deg)": -0.07943654332968904,
        "Longitude(deg)": -100.02873367256136,
        "Mean Anomaly(deg)": 0.0,
        "RAAN(deg)": 0.0,
        "Satellite Name": "Starlink Shell 1 0",
        "Satellite Number": 0,
        "Semi-Major Axis(m)": 6931778.249405717,
        "Time(s)": 0
    },
    {
        "Altitude(m)": 554177.790818809,
        "Argument of Periapsis(deg)": 0.00034857847951123687,
        "Eccentricity": 0.0,
        "Inclination(deg)": 53.0,
        "Latitude(deg)": 0.42450612738327315,
        "Longitude(deg)": -99.69335655279565,
        "Mean Anomaly(deg)": 0.6268312035567151,
        "RAAN(deg)": -0.0005187700774727988,
        "Satellite Name": "Starlink Shell 1 0",
        "Satellite Number": 0,
        "Semi-Major Axis(m)": 6931778.249405717,
        "Time(s)": 10
    },
    {
        "Altitude(m)": 554116.178514223,
        "Argument of Periapsis(deg)": 0.0006971569590224737,
        "Eccentricity": 0.0,
        "Inclination(deg)": 53.0,
        "Latitude(deg)": 0.9284390754908464,
        "Longitude(deg)": -99.35792370554638,
        "Mean Anomaly(deg)": 1.2536624071134301,
        "RAAN(deg)": -0.0010375401549455976,
        "Satellite Name": "Starlink Shell 1 0",
        "Satellite Number": 0,
        "Semi-Major Axis(m)": 6931778.249405717,
        "Time(s)": 20
    },
    {
        "Altitude(m)": 554057.3764842207,
        "Argument of Periapsis(deg)": 0.0010457354385337105,
        "Eccentricity": 0.0,
        "Inclination(deg)": 53.0,
        "Latitude(deg)": 1.4323393924723535,
        "Longitude(deg)": -99.02237757665043,
        "Mean Anomaly(deg)": 1.8804936106701455,
        "RAAN(deg)": -0.0015563102324183964,
        "Satellite Name": "Starlink Shell 1 0",
        "Satellite Number": 0,
        "Semi-Major Axis(m)": 6931778.249405717,
        "Time(s)": 30
    },
    {
        "Altitude(m)": 554001.3895446929,
        "Argument of Periapsis(deg)": 0.0013943139180449475,
        "Eccentricity": 0.0,
        "Inclination(deg)": 53.0,
        "Latitude(deg)": 1.9361841444922434,
        "Longitude(deg)": -98.68666005548921,
        "Mean Anomaly(deg)": 2.5073248142268603,
        "RAAN(deg)": -0.002075080309891195,
        "Satellite Name": "Starlink Shell 1 0",
        "Satellite Number": 0,
        "Semi-Major Axis(m)": 6931778.249405717,
        "Time(s)": 40
    },
    {
        "Altitude(m)": 553948.2211555742,
        "Argument of Periapsis(deg)": 0.0017428923975561844,
        "Eccentricity": 0.0,
        "Inclination(deg)": 53.0,
        "Latitude(deg)": 2.4399503606875608,
        "Longitude(deg)": -98.35071345831355,
        "Mean Anomaly(deg)": 3.1341560177835754,
        "RAAN(deg)": -0.002593850387363994,
        "Satellite Name": "Starlink Shell 1 0",
        "Satellite Number": 0,
        "Semi-Major Axis(m)": 6931778.249405717,
        "Time(s)": 50
    },
    {
        "Altitude(m)": 553897.8734219096,
        "Argument of Periapsis(deg)": 0.002091470877067421,
        "Eccentricity": 0.0,
        "Inclination(deg)": 53.0,
        "Latitude(deg)": 2.9436150214203067,
        "Longitude(deg)": -98.0144799986686,
        "Mean Anomaly(deg)": 3.760987221340291,
        "RAAN(deg)": -0.0031126204648367927,
        "Satellite Name": "Starlink Shell 1 0",
        "Satellite Number": 0,
        "Semi-Major Axis(m)": 6931778.249405717,
        "Time(s)": 60
    },
    {
        "Altitude(m)": 553850.3470955719,
        "Argument of Periapsis(deg)": 0.0024400493565786582,
        "Eccentricity": 0.0,
        "Inclination(deg)": 53.0,
        "Latitude(deg)": 3.447155046484266,
        "Longitude(deg)": -97.67790125778427,
        "Mean Anomaly(deg)": 4.387818424897007,
        "RAAN(deg)": -0.003631390542309592,
        "Satellite Name": "Starlink Shell 1 0",
        "Satellite Number": 0,
        "Semi-Major Axis(m)": 6931778.249405717,
        "Time(s)": 70
    },
    {
        "Altitude(m)": 553805.6415776348,
        "Argument of Periapsis(deg)": 0.002788627836089895,
        "Eccentricity": 0.0,
        "Inclination(deg)": 53.0,
        "Latitude(deg)": 3.950547283255585,
        "Longitude(deg)": -97.34091916779718,
        "Mean Anomaly(deg)": 5.0146496284537205,
        "RAAN(deg)": -0.00415016061978239,
        "Satellite Name": "Starlink Shell 1 0",
        "Satellite Number": 0,
        "Semi-Major Axis(m)": 6931778.249405717,
        "Time(s)": 80
    },
    {
        "Altitude(m)": 553763.7549214705,
        "Argument of Periapsis(deg)": 0.0031372063156011316,
        "Eccentricity": 0.0,
        "Inclination(deg)": 53.0,
        "Latitude(deg)": 4.453768494774372,
        "Longitude(deg)": -97.00347548205134,
        "Mean Anomaly(deg)": 5.641480832010435,
        "RAAN(deg)": -0.00466893069725519,
        "Satellite Name": "Starlink Shell 1 0",
        "Satellite Number": 0,
        "Semi-Major Axis(m)": 6931778.249405717,
        "Time(s)": 90
    },
    {
        "Altitude(m)": 553724.6838364822,
        "Argument of Periapsis(deg)": 0.0034857847951123688,
        "Eccentricity": 0.0,
        "Inclination(deg)": 53.0,
        "Latitude(deg)": 4.956795347746666,
        "Longitude(deg)": -96.66551124534253,
        "Mean Anomaly(deg)": 6.268312035567151,
        "RAAN(deg)": -0.005187700774727988,
        "Satellite Name": "Starlink Shell 1 0",
        "Satellite Number": 0,
        "Semi-Major Axis(m)": 6931778.249405717,
        "Time(s)": 100
    },
    {
        "Altitude(m)": 553688.4236924977,
        "Argument of Periapsis(deg)": 0.003834363274623606,
        "Eccentricity": 0.0,
        "Inclination(deg)": 53.0,
        "Latitude(deg)": 5.459604400455964,
        "Longitude(deg)": -96.32696777697538,
        "Mean Anomaly(deg)": 6.8951432391238665,
        "RAAN(deg)": -0.005706470852200787,
        "Satellite Name": "Starlink Shell 1 0",
        "Satellite Number": 0,
        "Semi-Major Axis(m)": 6931778.249405717,
        "Time(s)": 110
    },
    {
        "Altitude(m)": 553654.9685248736,
        "Argument of Periapsis(deg)": 0.004182941754134842,
        "Eccentricity": 0.0,
        "Inclination(deg)": 53.0,
        "Latitude(deg)": 5.9621720905714595,
        "Longitude(deg)": -95.98778614087836,
        "Mean Anomaly(deg)": 7.521974442680582,
        "RAAN(deg)": -0.0062252409296735855,
        "Satellite Name": "Starlink Shell 1 0",
        "Satellite Number": 0,
        "Semi-Major Axis(m)": 6931778.249405717,
        "Time(s)": 120
    },
    {
        "Altitude(m)": 553624.3110402324,
        "Argument of Periapsis(deg)": 0.004531520233646079,
        "Eccentricity": 0.0,
        "Inclination(deg)": 53.0,
        "Latitude(deg)": 6.464474722842192,
        "Longitude(deg)": -95.64790661564636,
        "Mean Anomaly(deg)": 8.148805646237296,
        "RAAN(deg)": -0.0067440110071463845,
        "Satellite Name": "Starlink Shell 1 0",
        "Satellite Number": 0,
        "Semi-Major Axis(m)": 6931778.249405717,
        "Time(s)": 130
    },
    {
        "Altitude(m)": 553596.4426228674,
        "Argument of Periapsis(deg)": 0.0048800987131573164,
        "Eccentricity": 0.0,
        "Inclination(deg)": 53.0,
        "Latitude(deg)": 6.9664884566660845,
        "Longitude(deg)": -95.3072696773775,
        "Mean Anomaly(deg)": 8.775636849794013,
        "RAAN(deg)": -0.007262781084619184,
        "Satellite Name": "Starlink Shell 1 0",
        "Satellite Number": 0,
        "Semi-Major Axis(m)": 6931778.249405717,
        "Time(s)": 140
    },
    {
        "Altitude(m)": 553571.3533418154,
        "Argument of Periapsis(deg)": 0.005228677192668553,
        "Eccentricity": 0.0,
        "Inclination(deg)": 53.0,
        "Latitude(deg)": 7.468189293520868,
        "Longitude(deg)": -94.96581546955424,
        "Mean Anomaly(deg)": 9.402468053350727,
        "RAAN(deg)": -0.007781551162091982,
        "Satellite Name": "Starlink Shell 1 0",
        "Satellite Number": 0,
        "Semi-Major Axis(m)": 6931778.249405717,
        "Time(s)": 150
    },
    {
        "Altitude(m)": 553549.0319585592,
        "Argument of Periapsis(deg)": 0.00557725567217979,
        "Eccentricity": 0.0,
        "Inclination(deg)": 53.0,
        "Latitude(deg)": 7.969553064245985,
        "Longitude(deg)": -94.62348327283749,
        "Mean Anomaly(deg)": 10.029299256907441,
        "RAAN(deg)": -0.00830032123956478,
        "Satellite Name": "Starlink Shell 1 0",
        "Satellite Number": 0,
        "Semi-Major Axis(m)": 6931778.249405717,
        "Time(s)": 160
    },
    {
        "Altitude(m)": 553529.465935408,
        "Argument of Periapsis(deg)": 0.0059258341516910265,
        "Eccentricity": 0.0,
        "Inclination(deg)": 53.0,
        "Latitude(deg)": 8.470555416163993,
        "Longitude(deg)": -94.28021248764429,
        "Mean Anomaly(deg)": 10.656130460464158,
        "RAAN(deg)": -0.00881909131703758,
        "Satellite Name": "Starlink Shell 1 0",
        "Satellite Number": 0,
        "Semi-Major Axis(m)": 6931778.249405717,
        "Time(s)": 170
    },
    {
        "Altitude(m)": 553512.6414445093,
        "Argument of Periapsis(deg)": 0.006274412631202263,
        "Eccentricity": 0.0,
        "Inclination(deg)": 53.0,
        "Latitude(deg)": 8.971171800028614,
        "Longitude(deg)": -93.93594210375984,
        "Mean Anomaly(deg)": 11.28296166402087,
        "RAAN(deg)": -0.00933786139451038,
        "Satellite Name": "Starlink Shell 1 0",
        "Satellite Number": 0,
        "Semi-Major Axis(m)": 6931778.249405717,
        "Time(s)": 180
    }
]